#dP2023  9  6  6  0  0.00000000      96 __u+U ITR00 EXT  IAC
## 2278 280800.00000000   900.00000000 60193 0.2500000000000
+  119   C06C07C08C09C10C11C12C13C14C16C19C20C21C22C23C24C25
+        C26C27C28C29C30C32C33C34C35C36C37C38C39C40C41C42C43
+        C44C45C46E02E03E04E05E07E08E09E10E11E12E13E14E15E18
+        E19E21E24E25E26E27E30E31E33E34E36G01G02G03G04G05G06
+        G07G08G09G10G11G12G13G14G15G16G17G18G19G20G21G22G23
+        G24G25G26G27G28G29G30G31G32J02J03J04R01R02R03R04R05
+        R07R08R09R11R12R13R14R15R16R17R18R19R20R21R22R24R25
++         8  9 11  9 10  9  9 10  9  7  8  9  8  8  8  7  7
++         9 10  8 10  8  9  8  7  9  8  8 10 11 10  7  9  9
++         8 10  8  7  7  8  7  8  7  7  8  8  7  7  7  8  8
++         7  8  7  8  7  8  7  7  7  8  8  7  7  7  8  7  8
++         8  7  7  8  8  7  8  7  8  7  7  7  7  8  7  7  8
++         7  7  6  7  8  7  8  8  7  8  9  8  8  9  8  7  9
++         8  7  8  9 10 10  8  7  6  8  9  9 10  8  8  7  7
%c M  cc GPS ccc cccc cccc cccc cccc ccccc ccccc ccccc ccccc
%c cc cc ccc ccc cccc cccc cccc cccc ccccc ccccc ccccc ccccc
%f  0.0000000  0.000000000  0.00000000000  0.000000000000000
%f  0.0000000  0.000000000  0.00000000000  0.000000000000000
%i    0    0    0    0      0      0      0      0         0
%i    0    0    0    0      0      0      0      0         0
/* IAC                                ULTRA-RAPID PREDICTION
/* S/V CLOCKS ARE ALIGNED TO GNSS TIME                      
/* G:C1WC2W R:C1PC2P E:C1XC5X C:C2IC6I J:C1CC2S             
/* PCV:IGS20_2274 OL/AL:FES2004  NONE     YN ORB:CoN CLK:CoN
*  2023 09 06 18 15  0.00000000
PC06  -8024.339703  40396.886129  -8311.278831     26.679259
PC07  -6690.222859  26985.569502  31804.699270    -46.552684
PC08 -20418.448309  27393.752340 -24874.184744    357.405786
PC09  -3632.437581  41689.321637    463.339041    199.112307
PC10   1869.179475  29539.994742  30507.138947   -169.725842
PC11  15634.196985    774.455745 -23036.130908    818.415882
PC12  13337.180281  20234.745966 -13813.611210    935.908879
PC13 -13370.366317  28167.675540 -28387.534327    347.336505
PC14  26481.893376   2138.848979   8636.183529    359.189364
PC16 -10140.049300  38861.084189 -12042.753577    -68.318338
PC19 -22035.154777   4743.082424 -16425.202531   -970.571577
PC20 -26800.611064  -7630.781417  -1174.823569    304.148686
PC21  15720.616627  16488.641160 -16127.031913   -964.141856
PC22  -4305.038021  15097.000095 -23083.521778   -318.834704
PC23  13749.695909 -22194.206589  -9837.989409   -880.124633
PC24  18888.388973   2642.591550  20357.148282    364.396820
PC25  22554.307192 -14998.487656   6664.818717    205.561566
PC26   4913.277671  16884.920825  21662.365058   -173.940795
PC27  -9745.689233 -25400.705072   6200.479933    195.381153
PC28   1579.223227 -26037.213120  -9898.175722    146.460766
PC29 -13220.544166  10775.603503  22083.581986    170.992898
PC30 -16759.692800 -11025.040802  19397.373593     -4.538588
PC32 -15704.342380 -16396.298709  16223.650128   -529.313875
PC33  22112.836972  -4815.677184  16332.198968   -958.134451
PC34  16901.956184   9481.565956 -20085.205511    253.691577
PC35   -754.190840  26021.860059  10002.946237    552.069026
PC36 -23033.902999  13915.412923  -7377.070250   -238.984650
PC37  -3739.495751 -17478.579977 -21408.273620   -821.790905
PC38 -25921.617488  28564.342223 -17209.336632    103.065875
PC39 -11554.222621  36198.018280 -17967.553850     -4.669676
PC40 -10590.679095  20813.984090  35135.943712    -35.563084
PC41   5119.759268 -14897.039443  23079.078577   -880.712505
PC42  26599.863068   8479.276136   -232.549831   -554.960253
PC43  13729.331229  -9847.142380 -22220.643892     38.581041
PC44  10656.283903  25064.979494  -6035.402667    223.307438
PC45 -13392.882794  22197.837699  10362.508146    -22.604059
PC46 -19581.658491  -1341.902214 -19849.228871    -82.263304
PE02  -4421.652117  17248.893530  23650.747354     60.681358
PE03   5433.745691  24156.129902 -16237.942669    -53.333230
PE04 -19621.160225 -22132.746917  -1121.639759   -206.206237
PE05 -11984.679903  12108.770672 -24207.090872     15.932229
PE07  22486.916068   7395.294342  17778.610444    -72.898207
PE08  19426.720860  22331.959347    678.605382   -142.110905
PE09 -22436.976344  -7559.702852 -17758.573893   -147.078098
PE10 -13855.737030  -8442.305372  24746.592010   -561.768127
PE11 -17489.651887   3421.195859  23620.719311   2878.673279
PE12  -8532.941892 -17984.075900  21903.622181   -687.327659
PE13  17268.743354  -2645.444784 -23893.620553    -19.582097
PE14  17864.491766  25456.409787    412.264201    332.813724
PE15   8233.464286  18312.202804 -21748.833555    -51.129234
PE18  -8145.210518 -22805.709692  -7509.842509    500.445278
PE19  -3128.679031 -23261.523897  18038.548867  -1687.660445
PE21  22924.236832 -13225.174068 -13252.362718   -551.080849
PE24 -29007.041365    777.694629  -5903.454412   -307.111356
PE25 -23177.541896  13075.437424  12975.294347     -1.419500
PE26  15922.503736 -22215.273892 -11347.533455    214.761603
PE27  29081.683290  -1294.574784   5353.781232   -143.382892
PE30  17616.286841  11580.203054  20771.824142   -478.777995
PE31 -18053.777044 -11245.521552 -20573.278666     -4.459392
PE33   5914.602875 -28299.020373   6313.638260     -0.788606
PE34  -5431.218261  28273.114844  -6926.958341    -65.623914
PE36 -16071.299145  21756.610550  12024.584061   -112.230458
PG01 -14252.438876  20401.664921   8431.149586    166.177232
PG02 -15657.882128  15039.026303  15682.310170   -557.027324
PG03 -18781.365171  12492.765702 -14078.128705   -149.320150
PG04  -8094.786377  13746.968504 -21206.573265    148.180813
PG05  26139.363239  -5002.404318   -543.820385   -141.699002
PG06   8641.872833  14540.895281 -20390.025826    554.807385
PG07  -4187.813243  25088.233501   7191.609108     74.639233
PG08 -16080.517745   3757.590742  20806.604638   -140.903139
PG09    843.932284  20040.531024 -17466.358477    -66.852917
PG10 -12758.994906 -11799.012139  20359.854427    -52.315930
PG11  15811.969925    668.518665 -21308.355902   -356.026668
PG12  22117.669861  -9735.352907 -11212.060041   -421.708148
PG13  18248.626969   6221.762539  18169.199357    569.332383
PG14   8931.870135  13945.222170  20818.968469    176.956569
PG15  15114.335012  -6585.357301  20387.332918     74.969519
PG16 -26376.719033  -1538.212433  -4817.336502   -457.963948
PG17  12707.627588  22928.054358   4304.953584    723.549724
PG18   3445.884961 -24672.257750   8954.438943   -408.440894
PG19  16915.951733  20207.395705  -4748.418718    367.899092
PG20  23835.273103    567.791755 -11466.018741    413.257975
PG21 -16080.836818  12041.522613  17413.009244    149.416825
PG22  15683.299673  11716.347601  18283.168689    126.976292
PG23   1357.847521 -15226.627262  21705.928501     64.805612
PG24  14725.730855 -17555.938261  12686.426395   -311.920919
PG25   9302.862781 -15704.854475 -19518.385532    466.341737
PG26 -21704.505550  -5985.690615 -14480.524813    229.745458
PG27 -20319.106014  -8848.221151  14683.629281    -35.043716
PG28  -8474.789939 -16367.832585 -19146.374773     -6.321974
PG29    575.916026 -20002.028835 -17458.960569   -608.975970
PG30   3396.852302  21618.727376  14990.557907   -490.114013
PG31 -14207.890027  -6031.269543 -21795.420473   -222.993245
PG32 -16732.776984 -20767.702411    420.193268   -553.584094
PJ02 -31276.667172  23941.137353  20135.504979     -3.609277
PJ03 -28609.841114  26248.564120  21568.036668     -2.249865
PJ04 -27546.030229  20594.912991 -19339.790529     70.545944
PR01 -23261.157710  -7971.304779  -6774.557750     65.065946
PR02 -14719.580736   2970.381704 -20601.967718    -22.449232
PR03   1966.922673  12760.677049 -21947.511043     84.733750
PR04  17110.693862  15204.540531 -11216.929551    201.742386
PR05  22960.168086   9558.779304   5611.180923    118.586187
PR07  -2873.785046 -13131.530665  21723.743071     64.077834
PR08 -17295.429531 -15163.295076  11118.540602    -72.430818
PR09  21107.166945 -14389.980959   -541.956454    140.804506
PR11  -4710.803177  -9952.963303 -22995.034917   -154.753984
PR12 -19599.295921   3373.235448 -15951.208598     30.991922
PR13 -21744.206364  13246.550500  -1555.929089    -38.936898
PR14 -10632.807768  16343.941856  16451.422096     25.223378
PR15   6012.526930   9295.437006  23004.904432     86.414195
PR16  19386.878564  -3355.163879  16270.480436     18.432318
PR17  -1644.521370  24947.020806   5200.397453     15.147005
PR18   5498.204831  22170.041040 -11299.506908    100.591239
PR19   9459.530009   9927.519127 -21512.605287   -246.236985
PR20   9090.272194 -12795.172346 -20110.256765    -99.580832
PR21   1345.183977 -25106.389275  -4190.264259    -36.030626
PR22  -5428.545918 -21797.871600  12116.904961     67.614055
PR24  -8875.463082  13698.165534  19628.036912    -23.348702
PR25   2825.079114 -24798.295154  -5194.533894     39.019524
EOF
